; Generated by Interactive 4D Printing Toolpath Generator
; Dimensions: 100mm x 24mm
; Layers: 4 | Infill Angle: 45°
; UNG-CAD research toolpath: validate extrusion calibration and printer profile before running.

M140 S60 ; Heat bed
M104 S210 ; Heat nozzle
M109 S210 ; Wait for nozzle
M190 S60 ; Wait for bed
G28 ; Home axes
G90 ; Absolute positioning
M82 ; Absolute extrusion
G92 E0 ; Reset extrusion origin

; --- LAYER 1 ---
G0 F1200 Z0.20
G0 F3600 X2.00 Y2.00
G1 F1500 X98.00 Y2.00 E0.1800
G1 F1500 X98.00 Y22.00 E0.3600
G1 F1500 X2.00 Y22.00 E0.5400
G1 F1500 X2.00 Y2.00 E0.7200
G0 F3600 X93.05 Y2.00
G1 F1500 X98.00 Y6.95 E0.9000
G0 F3600 X98.00 Y11.90
G1 F1500 X88.10 Y2.00 E1.0800
G0 F3600 X83.15 Y2.00
G1 F1500 X98.00 Y16.85 E1.2600
G0 F3600 X98.00 Y21.80
G1 F1500 X78.20 Y2.00 E1.4400
G0 F3600 X93.25 Y22.00
G1 F1500 X73.25 Y2.00 E1.6200
G0 F3600 X68.30 Y2.00
G1 F1500 X88.30 Y22.00 E1.8000
G0 F3600 X83.35 Y22.00
G1 F1500 X63.35 Y2.00 E1.9800
G0 F3600 X58.40 Y2.00
G1 F1500 X78.40 Y22.00 E2.1600
G0 F3600 X73.45 Y22.00
G1 F1500 X53.45 Y2.00 E2.3400
G0 F3600 X48.50 Y2.00
G1 F1500 X68.50 Y22.00 E2.5200
G0 F3600 X63.55 Y22.00
G1 F1500 X43.55 Y2.00 E2.7000
G0 F3600 X38.60 Y2.00
G1 F1500 X58.60 Y22.00 E2.8800
G0 F3600 X53.65 Y22.00
G1 F1500 X33.65 Y2.00 E3.0600
G0 F3600 X28.70 Y2.00
G1 F1500 X48.70 Y22.00 E3.2400
G0 F3600 X43.75 Y22.00
G1 F1500 X23.75 Y2.00 E3.4200
G0 F3600 X18.80 Y2.00
G1 F1500 X38.80 Y22.00 E3.6000
G0 F3600 X33.85 Y22.00
G1 F1500 X13.85 Y2.00 E3.7800
G0 F3600 X8.90 Y2.00
G1 F1500 X28.90 Y22.00 E3.9600
G0 F3600 X23.95 Y22.00
G1 F1500 X3.95 Y2.00 E4.1400
G0 F3600 X2.00 Y4.99
G1 F1500 X19.01 Y22.00 E4.3200
G0 F3600 X14.06 Y22.00
G1 F1500 X2.00 Y9.94 E4.5000
G0 F3600 X2.00 Y14.89
G1 F1500 X9.11 Y22.00 E4.6800
G0 F3600 X4.16 Y22.00
G1 F1500 X2.00 Y19.84 E4.8600

; --- LAYER 2 ---
G0 F1200 Z0.40
G0 F3600 X2.00 Y2.00
G1 F1500 X98.00 Y2.00 E5.0400
G1 F1500 X98.00 Y22.00 E5.2200
G1 F1500 X2.00 Y22.00 E5.4000
G1 F1500 X2.00 Y2.00 E5.5800
G0 F3600 X93.05 Y2.00
G1 F1500 X98.00 Y6.95 E5.7600
G0 F3600 X98.00 Y11.90
G1 F1500 X88.10 Y2.00 E5.9400
G0 F3600 X83.15 Y2.00
G1 F1500 X98.00 Y16.85 E6.1200
G0 F3600 X98.00 Y21.80
G1 F1500 X78.20 Y2.00 E6.3000
G0 F3600 X93.25 Y22.00
G1 F1500 X73.25 Y2.00 E6.4800
G0 F3600 X68.30 Y2.00
G1 F1500 X88.30 Y22.00 E6.6600
G0 F3600 X83.35 Y22.00
G1 F1500 X63.35 Y2.00 E6.8400
G0 F3600 X58.40 Y2.00
G1 F1500 X78.40 Y22.00 E7.0200
G0 F3600 X73.45 Y22.00
G1 F1500 X53.45 Y2.00 E7.2000
G0 F3600 X48.50 Y2.00
G1 F1500 X68.50 Y22.00 E7.3800
G0 F3600 X63.55 Y22.00
G1 F1500 X43.55 Y2.00 E7.5600
G0 F3600 X38.60 Y2.00
G1 F1500 X58.60 Y22.00 E7.7400
G0 F3600 X53.65 Y22.00
G1 F1500 X33.65 Y2.00 E7.9200
G0 F3600 X28.70 Y2.00
G1 F1500 X48.70 Y22.00 E8.1000
G0 F3600 X43.75 Y22.00
G1 F1500 X23.75 Y2.00 E8.2800
G0 F3600 X18.80 Y2.00
G1 F1500 X38.80 Y22.00 E8.4600
G0 F3600 X33.85 Y22.00
G1 F1500 X13.85 Y2.00 E8.6400
G0 F3600 X8.90 Y2.00
G1 F1500 X28.90 Y22.00 E8.8200
G0 F3600 X23.95 Y22.00
G1 F1500 X3.95 Y2.00 E9.0000
G0 F3600 X2.00 Y4.99
G1 F1500 X19.01 Y22.00 E9.1800
G0 F3600 X14.06 Y22.00
G1 F1500 X2.00 Y9.94 E9.3600
G0 F3600 X2.00 Y14.89
G1 F1500 X9.11 Y22.00 E9.5400
G0 F3600 X4.16 Y22.00
G1 F1500 X2.00 Y19.84 E9.7200

; --- LAYER 3 ---
G0 F1200 Z0.60
G0 F3600 X2.00 Y2.00
G1 F1500 X98.00 Y2.00 E9.9000
G1 F1500 X98.00 Y22.00 E10.0800
G1 F1500 X2.00 Y22.00 E10.2600
G1 F1500 X2.00 Y2.00 E10.4400
G0 F3600 X93.05 Y2.00
G1 F1500 X98.00 Y6.95 E10.6200
G0 F3600 X98.00 Y11.90
G1 F1500 X88.10 Y2.00 E10.8000
G0 F3600 X83.15 Y2.00
G1 F1500 X98.00 Y16.85 E10.9800
G0 F3600 X98.00 Y21.80
G1 F1500 X78.20 Y2.00 E11.1600
G0 F3600 X93.25 Y22.00
G1 F1500 X73.25 Y2.00 E11.3400
G0 F3600 X68.30 Y2.00
G1 F1500 X88.30 Y22.00 E11.5200
G0 F3600 X83.35 Y22.00
G1 F1500 X63.35 Y2.00 E11.7000
G0 F3600 X58.40 Y2.00
G1 F1500 X78.40 Y22.00 E11.8800
G0 F3600 X73.45 Y22.00
G1 F1500 X53.45 Y2.00 E12.0600
G0 F3600 X48.50 Y2.00
G1 F1500 X68.50 Y22.00 E12.2400
G0 F3600 X63.55 Y22.00
G1 F1500 X43.55 Y2.00 E12.4200
G0 F3600 X38.60 Y2.00
G1 F1500 X58.60 Y22.00 E12.6000
G0 F3600 X53.65 Y22.00
G1 F1500 X33.65 Y2.00 E12.7800
G0 F3600 X28.70 Y2.00
G1 F1500 X48.70 Y22.00 E12.9600
G0 F3600 X43.75 Y22.00
G1 F1500 X23.75 Y2.00 E13.1400
G0 F3600 X18.80 Y2.00
G1 F1500 X38.80 Y22.00 E13.3200
G0 F3600 X33.85 Y22.00
G1 F1500 X13.85 Y2.00 E13.5000
G0 F3600 X8.90 Y2.00
G1 F1500 X28.90 Y22.00 E13.6800
G0 F3600 X23.95 Y22.00
G1 F1500 X3.95 Y2.00 E13.8600
G0 F3600 X2.00 Y4.99
G1 F1500 X19.01 Y22.00 E14.0400
G0 F3600 X14.06 Y22.00
G1 F1500 X2.00 Y9.94 E14.2200
G0 F3600 X2.00 Y14.89
G1 F1500 X9.11 Y22.00 E14.4000
G0 F3600 X4.16 Y22.00
G1 F1500 X2.00 Y19.84 E14.5800

; --- LAYER 4 ---
G0 F1200 Z0.80
G0 F3600 X2.00 Y2.00
G1 F1500 X98.00 Y2.00 E14.7600
G1 F1500 X98.00 Y22.00 E14.9400
G1 F1500 X2.00 Y22.00 E15.1200
G1 F1500 X2.00 Y2.00 E15.3000
G0 F3600 X93.05 Y2.00
G1 F1500 X98.00 Y6.95 E15.4800
G0 F3600 X98.00 Y11.90
G1 F1500 X88.10 Y2.00 E15.6600
G0 F3600 X83.15 Y2.00
G1 F1500 X98.00 Y16.85 E15.8400
G0 F3600 X98.00 Y21.80
G1 F1500 X78.20 Y2.00 E16.0200
G0 F3600 X93.25 Y22.00
G1 F1500 X73.25 Y2.00 E16.2000
G0 F3600 X68.30 Y2.00
G1 F1500 X88.30 Y22.00 E16.3800
G0 F3600 X83.35 Y22.00
G1 F1500 X63.35 Y2.00 E16.5600
G0 F3600 X58.40 Y2.00
G1 F1500 X78.40 Y22.00 E16.7400
G0 F3600 X73.45 Y22.00
G1 F1500 X53.45 Y2.00 E16.9200
G0 F3600 X48.50 Y2.00
G1 F1500 X68.50 Y22.00 E17.1000
G0 F3600 X63.55 Y22.00
G1 F1500 X43.55 Y2.00 E17.2800
G0 F3600 X38.60 Y2.00
G1 F1500 X58.60 Y22.00 E17.4600
G0 F3600 X53.65 Y22.00
G1 F1500 X33.65 Y2.00 E17.6400
G0 F3600 X28.70 Y2.00
G1 F1500 X48.70 Y22.00 E17.8200
G0 F3600 X43.75 Y22.00
G1 F1500 X23.75 Y2.00 E18.0000
G0 F3600 X18.80 Y2.00
G1 F1500 X38.80 Y22.00 E18.1800
G0 F3600 X33.85 Y22.00
G1 F1500 X13.85 Y2.00 E18.3600
G0 F3600 X8.90 Y2.00
G1 F1500 X28.90 Y22.00 E18.5400
G0 F3600 X23.95 Y22.00
G1 F1500 X3.95 Y2.00 E18.7200
G0 F3600 X2.00 Y4.99
G1 F1500 X19.01 Y22.00 E18.9000
G0 F3600 X14.06 Y22.00
G1 F1500 X2.00 Y9.94 E19.0800
G0 F3600 X2.00 Y14.89
G1 F1500 X9.11 Y22.00 E19.2600
G0 F3600 X4.16 Y22.00
G1 F1500 X2.00 Y19.84 E19.4400

M104 S0 ; Turn off nozzle
M140 S0 ; Turn off bed
M84 ; Disable motors
